[
    {
        "Altitude(m)": 604234.624866604,
        "Argument of Periapsis(deg)": 0.0,
        "Eccentricity": 0.0,
        "Inclination(deg)": 60.0,
        "Latitude(deg)": 14.117324935875137,
        "Longitude(deg)": 76.7273205453742,
        "Mean Anomaly(deg)": 163.6364,
        "RAAN(deg)": 5.0,
        "Satellite Name": "Test1 32",
        "Satellite Number": 32,
        "Semi-Major Axis(m)": 6980739.136638005,
        "Time(s)": 0
    },
    {
        "Altitude(m)": 604223.4529118802,
        "Argument of Periapsis(deg)": 0.00010418945913296404,
        "Eccentricity": 0.0,
        "Inclination(deg)": 60.0,
        "Latitude(deg)": 13.582461444864999,
        "Longitude(deg)": 77.01423009544524,
        "Mean Anomaly(deg)": 164.25650614546183,
        "RAAN(deg)": 4.999579950860257,
        "Satellite Name": "Test1 32",
        "Satellite Number": 32,
        "Semi-Major Axis(m)": 6980739.136638005,
        "Time(s)": 10
    },
    {
        "Altitude(m)": 604215.236212472,
        "Argument of Periapsis(deg)": 0.0002083789182659281,
        "Eccentricity": 0.0,
        "Inclination(deg)": 60.0,
        "Latitude(deg)": 13.047149813416537,
        "Longitude(deg)": 77.29966912350292,
        "Mean Anomaly(deg)": 164.87661229092367,
        "RAAN(deg)": 4.999159901720515,
        "Satellite Name": "Test1 32",
        "Satellite Number": 32,
        "Semi-Major Axis(m)": 6980739.136638005,
        "Time(s)": 20
    },
    {
        "Altitude(m)": 604210.0026606706,
        "Argument of Periapsis(deg)": 0.00031256837739889213,
        "Eccentricity": 0.0,
        "Inclination(deg)": 60.0,
        "Latitude(deg)": 12.51141043025909,
        "Longitude(deg)": 77.58370234310676,
        "Mean Anomaly(deg)": 165.4967184363855,
        "RAAN(deg)": 4.998739852580773,
        "Satellite Name": "Test1 32",
        "Satellite Number": 32,
        "Semi-Major Axis(m)": 6980739.136638005,
        "Time(s)": 30
    },
    {
        "Altitude(m)": 604207.778804717,
        "Argument of Periapsis(deg)": 0.0004167578365318562,
        "Eccentricity": 0.0,
        "Inclination(deg)": 60.0,
        "Latitude(deg)": 11.975263408163588,
        "Longitude(deg)": 77.86639412243193,
        "Mean Anomaly(deg)": 166.11682458184734,
        "RAAN(deg)": 4.99831980344103,
        "Satellite Name": "Test1 32",
        "Satellite Number": 32,
        "Semi-Major Axis(m)": 6980739.136638005,
        "Time(s)": 40
    },
    {
        "Altitude(m)": 604208.5898330377,
        "Argument of Periapsis(deg)": 0.0005209472956648203,
        "Eccentricity": 0.0,
        "Inclination(deg)": 60.0,
        "Latitude(deg)": 11.438728597889385,
        "Longitude(deg)": 78.14780751598558,
        "Mean Anomaly(deg)": 166.7369307273092,
        "RAAN(deg)": 4.997899754301287,
        "Satellite Name": "Test1 32",
        "Satellite Number": 32,
        "Semi-Major Axis(m)": 6980739.136638005,
        "Time(s)": 50
    },
    {
        "Altitude(m)": 604212.4595590831,
        "Argument of Periapsis(deg)": 0.0006251367547977843,
        "Eccentricity": 0.0,
        "Inclination(deg)": 60.0,
        "Latitude(deg)": 10.90182560177561,
        "Longitude(deg)": 78.42800480850885,
        "Mean Anomaly(deg)": 167.357036872771,
        "RAAN(deg)": 4.9974797051615445,
        "Satellite Name": "Test1 32",
        "Satellite Number": 32,
        "Semi-Major Axis(m)": 6980739.136638005,
        "Time(s)": 60
    },
    {
        "Altitude(m)": 604219.410406883,
        "Argument of Periapsis(deg)": 0.0007293262139307483,
        "Eccentricity": 0.0,
        "Inclination(deg)": 60.0,
        "Latitude(deg)": 10.36457378699445,
        "Longitude(deg)": 78.7070480582206,
        "Mean Anomaly(deg)": 167.97714301823282,
        "RAAN(deg)": 4.9970596560218015,
        "Satellite Name": "Test1 32",
        "Satellite Number": 32,
        "Semi-Major Axis(m)": 6980739.136638005,
        "Time(s)": 70
    },
    {
        "Altitude(m)": 604229.4633972325,
        "Argument of Periapsis(deg)": 0.0008335156730637124,
        "Eccentricity": 0.0,
        "Inclination(deg)": 60.0,
        "Latitude(deg)": 9.826992298484804,
        "Longitude(deg)": 78.98499812655801,
        "Mean Anomaly(deg)": 168.59724916369464,
        "RAAN(deg)": 4.996639606882058,
        "Satellite Name": "Test1 32",
        "Satellite Number": 32,
        "Semi-Major Axis(m)": 6980739.136638005,
        "Time(s)": 80
    },
    {
        "Altitude(m)": 604242.638134583,
        "Argument of Periapsis(deg)": 0.0009377051321966765,
        "Eccentricity": 0.0,
        "Inclination(deg)": 60.0,
        "Latitude(deg)": 9.2891000715854,
        "Longitude(deg)": 79.26191522019101,
        "Mean Anomaly(deg)": 169.2173553091565,
        "RAAN(deg)": 4.996219557742316,
        "Satellite Name": "Test1 32",
        "Satellite Number": 32,
        "Semi-Major Axis(m)": 6980739.136638005,
        "Time(s)": 90
    },
    {
        "Altitude(m)": 604258.9527946056,
        "Argument of Periapsis(deg)": 0.0010418945913296407,
        "Eccentricity": 0.0,
        "Inclination(deg)": 60.0,
        "Latitude(deg)": 8.750915844384403,
        "Longitude(deg)": 79.53785943246713,
        "Mean Anomaly(deg)": 169.83746145461834,
        "RAAN(deg)": 4.995799508602573,
        "Satellite Name": "Test1 32",
        "Satellite Number": 32,
        "Semi-Major Axis(m)": 6980739.136638005,
        "Time(s)": 100
    },
    {
        "Altitude(m)": 604278.4241124645,
        "Argument of Periapsis(deg)": 0.0011460840504626045,
        "Eccentricity": 0.0,
        "Inclination(deg)": 60.0,
        "Latitude(deg)": 8.212458169802213,
        "Longitude(deg)": 79.81288977144149,
        "Mean Anomaly(deg)": 170.45756760008015,
        "RAAN(deg)": 4.995379459462831,
        "Satellite Name": "Test1 32",
        "Satellite Number": 32,
        "Semi-Major Axis(m)": 6980739.136638005,
        "Time(s)": 110
    },
    {
        "Altitude(m)": 604301.0673717608,
        "Argument of Periapsis(deg)": 0.0012502735095955685,
        "Eccentricity": 0.0,
        "Inclination(deg)": 60.0,
        "Latitude(deg)": 7.6737454274247705,
        "Longitude(deg)": 80.08706470027073,
        "Mean Anomaly(deg)": 171.07767374554197,
        "RAAN(deg)": 4.994959410323088,
        "Satellite Name": "Test1 32",
        "Satellite Number": 32,
        "Semi-Major Axis(m)": 6980739.136638005,
        "Time(s)": 120
    },
    {
        "Altitude(m)": 604326.8963942286,
        "Argument of Periapsis(deg)": 0.0013544629687285324,
        "Eccentricity": 0.0,
        "Inclination(deg)": 60.0,
        "Latitude(deg)": 7.1347958351043745,
        "Longitude(deg)": 80.36044267712518,
        "Mean Anomaly(deg)": 171.6977798910038,
        "RAAN(deg)": 4.994539361183345,
        "Satellite Name": "Test1 32",
        "Satellite Number": 32,
        "Semi-Major Axis(m)": 6980739.136638005,
        "Time(s)": 130
    },
    {
        "Altitude(m)": 604355.9235301069,
        "Argument of Periapsis(deg)": 0.0014586524278614966,
        "Eccentricity": 0.0,
        "Inclination(deg)": 60.0,
        "Latitude(deg)": 6.595627460341878,
        "Longitude(deg)": 80.6330811817767,
        "Mean Anomaly(deg)": 172.31788603646564,
        "RAAN(deg)": 4.994119312043602,
        "Satellite Name": "Test1 32",
        "Satellite Number": 32,
        "Semi-Major Axis(m)": 6980739.136638005,
        "Time(s)": 140
    },
    {
        "Altitude(m)": 604388.15964925,
        "Argument of Periapsis(deg)": 0.0015628418869944607,
        "Eccentricity": 0.0,
        "Inclination(deg)": 60.0,
        "Latitude(deg)": 6.0562582314685685,
        "Longitude(deg)": 80.90503725463833,
        "Mean Anomaly(deg)": 172.93799218192746,
        "RAAN(deg)": 4.99369926290386,
        "Satellite Name": "Test1 32",
        "Satellite Number": 32,
        "Semi-Major Axis(m)": 6980739.136638005,
        "Time(s)": 150
    },
    {
        "Altitude(m)": 604423.6141329544,
        "Argument of Periapsis(deg)": 0.0016670313461274247,
        "Eccentricity": 0.0,
        "Inclination(deg)": 60.0,
        "Latitude(deg)": 5.516705948641371,
        "Longitude(deg)": 81.17636803541197,
        "Mean Anomaly(deg)": 173.5580983273893,
        "RAAN(deg)": 4.993279213764118,
        "Satellite Name": "Test1 32",
        "Satellite Number": 32,
        "Semi-Major Axis(m)": 6980739.136638005,
        "Time(s)": 160
    },
    {
        "Altitude(m)": 604462.2948665095,
        "Argument of Periapsis(deg)": 0.0017712208052603888,
        "Eccentricity": 0.0,
        "Inclination(deg)": 60.0,
        "Latitude(deg)": 4.9769882946665405,
        "Longitude(deg)": 81.44712978850002,
        "Mean Anomaly(deg)": 174.17820447285115,
        "RAAN(deg)": 4.992859164624375,
        "Satellite Name": "Test1 32",
        "Satellite Number": 32,
        "Semi-Major Axis(m)": 6980739.136638005,
        "Time(s)": 170
    },
    {
        "Altitude(m)": 604504.2082325069,
        "Argument of Periapsis(deg)": 0.001875410264393353,
        "Eccentricity": 0.0,
        "Inclination(deg)": 60.0,
        "Latitude(deg)": 4.437122845667485,
        "Longitude(deg)": 81.71737844095756,
        "Mean Anomaly(deg)": 174.79831061831297,
        "RAAN(deg)": 4.992439115484632,
        "Satellite Name": "Test1 32",
        "Satellite Number": 32,
        "Semi-Major Axis(m)": 6980739.136638005,
        "Time(s)": 180
    },
    {
        "Altitude(m)": 604549.359104853,
        "Argument of Periapsis(deg)": 0.0019795997235263173,
        "Eccentricity": 0.0,
        "Inclination(deg)": 60.0,
        "Latitude(deg)": 3.897127081610982,
        "Longitude(deg)": 81.987170120141,
        "Mean Anomaly(deg)": 175.4184167637748,
        "RAAN(deg)": 4.992019066344889,
        "Satellite Name": "Test1 32",
        "Satellite Number": 32,
        "Semi-Major Axis(m)": 6980739.136638005,
        "Time(s)": 190
    }
]